start=new Date('2022-08-05T00:00:00.000Z').valueOf();
sats=[{"PERIOD":"95.593","TLE_LINE1":"1 45050U 20006G   22216.65726259 -.00000389  00000-0 -72191-5 0  9994","FILE":"3529274","ELEMENT_SET_NO":"999","RA_OF_ASC_NODE":"61.0386","COUNTRY_CODE":"US","REV_AT_EPOCH":"13855","PERIAPSIS":"546.261","OBJECT_NAME":"STARLINK-1140","TLE_LINE2":"2 45050  53.0538  61.0386 0001408  87.7664 272.3486 15.06392806138559","MEAN_ELEMENT_THEORY":"SGP4","SITE":"AFETR","ECCENTRICITY":"0.00014080","LAUNCH_DATE":"2020-01-29","MEAN_MOTION_DDOT":"0.0000000000000","MEAN_MOTION_DOT":"-0.00000389","APOAPSIS":"548.211","DECAY_DATE":null,"EPHEMERIS_TYPE":"0","CENTER_NAME":"EARTH","NORAD_CAT_ID":"45050","ARG_OF_PERICENTER":"87.7664","MEAN_MOTION":"15.06392806","TIME_SYSTEM":"UTC","SEMIMAJOR_AXIS":"6925.371","EPOCH":"2022-08-04T15:46:27.487776","MEAN_ANOMALY":"272.3486","GP_ID":"209586221","RCS_SIZE":"LARGE","OBJECT_ID":"2020-006G","REF_FRAME":"TEME","BSTAR":"-0.00000721910000","OBJECT_TYPE":"PAYLOAD","INCLINATION":"53.0538","CLASSIFICATION_TYPE":"U"},{"RCS_SIZE":"LARGE","GP_ID":"209586971","REF_FRAME":"TEME","OBJECT_ID":"2020-006H","CLASSIFICATION_TYPE":"U","INCLINATION":"53.0511","OBJECT_TYPE":"PAYLOAD","BSTAR":"0.00049822000000","MEAN_MOTION":"15.14065123","ARG_OF_PERICENTER":"90.1227","EPOCH":"2022-08-04T15:20:33.030816","MEAN_ANOMALY":"270.0002","SEMIMAJOR_AXIS":"6901.955","TIME_SYSTEM":"UTC","LAUNCH_DATE":"2020-01-29","ECCENTRICITY":"0.00020630","SITE":"AFETR","MEAN_ELEMENT_THEORY":"SGP4","TLE_LINE2":"2 45051  53.0511  54.6532 0002063  90.1227 270.0002 15.14065123138640","MEAN_MOTION_DDOT":"0.0000000000000","CENTER_NAME":"EARTH","EPHEMERIS_TYPE":"0","DECAY_DATE":null,"APOAPSIS":"525.244","MEAN_MOTION_DOT":"0.00008876","NORAD_CAT_ID":"45051","FILE":"3529274","TLE_LINE1":"1 45051U 20006H   22216.63927119  .00008876  00000-0  49822-3 0  9991","PERIOD":"95.108","ELEMENT_SET_NO":"999","RA_OF_ASC_NODE":"54.6532","OBJECT_NAME":"STARLINK-1141","PERIAPSIS":"522.396","COUNTRY_CODE":"US","REV_AT_EPOCH":"13864"},{"SEMIMAJOR_AXIS":"6925.355","TIME_SYSTEM":"UTC","EPOCH":"2022-08-04T15:57:04.473504","MEAN_ANOMALY":"276.5368","ARG_OF_PERICENTER":"83.5793","MEAN_MOTION":"15.06397882","OBJECT_TYPE":"PAYLOAD","BSTAR":"0.00001841600000","INCLINATION":"53.0542","CLASSIFICATION_TYPE":"U","OBJECT_ID":"2020-006J","REF_FRAME":"TEME","RCS_SIZE":"LARGE","GP_ID":"209587223","PERIAPSIS":"546.172","REV_AT_EPOCH":"13855","COUNTRY_CODE":"US","OBJECT_NAME":"STARLINK-1148","RA_OF_ASC_NODE":"61.0096","ELEMENT_SET_NO":"999","PERIOD":"95.592","FILE":"3529274","TLE_LINE1":"1 45052U 20006J   22216.66463511 -.00000007  00000-0  18416-4 0  9991","NORAD_CAT_ID":"45052","DECAY_DATE":null,"APOAPSIS":"548.268","MEAN_MOTION_DOT":"-0.00000007","CENTER_NAME":"EARTH","EPHEMERIS_TYPE":"0","MEAN_MOTION_DDOT":"0.0000000000000","MEAN_ELEMENT_THEORY":"SGP4","TLE_LINE2":"2 45052  53.0542  61.0096 0001513  83.5793 276.5368 15.06397882138552","ECCENTRICITY":"0.00015130","LAUNCH_DATE":"2020-01-29","SITE":"AFETR"},{"MEAN_MOTION":"15.14424009","ARG_OF_PERICENTER":"71.8272","EPOCH":"2022-08-04T13:20:52.136736","MEAN_ANOMALY":"288.2949","TIME_SYSTEM":"UTC","SEMIMAJOR_AXIS":"6900.865","RCS_SIZE":"LARGE","GP_ID":"209557268","CLASSIFICATION_TYPE":"U","INCLINATION":"53.0018","OBJECT_TYPE":"PAYLOAD","BSTAR":"0.00048404000000","OBJECT_ID":"2020-006K","REF_FRAME":"TEME","ELEMENT_SET_NO":"999","FILE":"3529060","TLE_LINE1":"1 45053U 20006K   22216.55615899  .00008704  00000-0  48404-3 0  9998","PERIOD":"95.086","OBJECT_NAME":"STARLINK-1155","PERIAPSIS":"521.276","COUNTRY_CODE":"US","REV_AT_EPOCH":"13865","RA_OF_ASC_NODE":"50.6557","MEAN_MOTION_DDOT":"0.0000000000000","LAUNCH_DATE":"2020-01-29","ECCENTRICITY":"0.00021070","SITE":"AFETR","MEAN_ELEMENT_THEORY":"SGP4","TLE_LINE2":"2 45053  53.0018  50.6557 0002107  71.8272 288.2949 15.14424009138656","NORAD_CAT_ID":"45053","CENTER_NAME":"EARTH","EPHEMERIS_TYPE":"0","DECAY_DATE":null,"APOAPSIS":"524.184","MEAN_MOTION_DOT":"0.00008704"},{"CLASSIFICATION_TYPE":"U","INCLINATION":"53.0546","OBJECT_TYPE":"PAYLOAD","BSTAR":"0.00005049000000","REF_FRAME":"TEME","OBJECT_ID":"2020-006L","RCS_SIZE":"LARGE","GP_ID":"209586721","MEAN_ANOMALY":"264.5517","EPOCH":"2022-08-04T19:02:50.639424","SEMIMAJOR_AXIS":"6925.345","TIME_SYSTEM":"UTC","MEAN_MOTION":"15.06401273","ARG_OF_PERICENTER":"95.5659","NORAD_CAT_ID":"45054","CENTER_NAME":"EARTH","EPHEMERIS_TYPE":"0","APOAPSIS":"548.345","DECAY_DATE":null,"MEAN_MOTION_DOT":"0.00000471","MEAN_MOTION_DDOT":"0.0000000000000","ECCENTRICITY":"0.00016400","LAUNCH_DATE":"2020-01-29","SITE":"AFETR","MEAN_ELEMENT_THEORY":"SGP4","TLE_LINE2":"2 45054  53.0546  60.4436 0001640  95.5659 264.5517 15.06401273138579","OBJECT_NAME":"STARLINK-1156","PERIAPSIS":"546.074","COUNTRY_CODE":"US","REV_AT_EPOCH":"13857","RA_OF_ASC_NODE":"60.4436","ELEMENT_SET_NO":"999","FILE":"3529274","TLE_LINE1":"1 45054U 20006L   22216.79364166  .00000471  00000-0  50490-4 0  9995","PERIOD":"95.592"},{"NORAD_CAT_ID":"45057","APOAPSIS":"548.230","DECAY_DATE":null,"MEAN_MOTION_DOT":"-0.00000126","CENTER_NAME":"EARTH","EPHEMERIS_TYPE":"0","MEAN_MOTION_DDOT":"0.0000000000000","MEAN_ELEMENT_THEORY":"SGP4","TLE_LINE2":"2 45057  53.0571  60.9730 0001426  89.7270 270.3883 15.06390544138566","LAUNCH_DATE":"2020-01-29","ECCENTRICITY":"0.00014260","SITE":"AFETR","PERIAPSIS":"546.255","COUNTRY_CODE":"US","REV_AT_EPOCH":"13856","OBJECT_NAME":"STARLINK-1159","RA_OF_ASC_NODE":"60.9730","ELEMENT_SET_NO":"999","PERIOD":"95.593","FILE":"3529274","TLE_LINE1":"1 45057U 20006P   22216.67569723 -.00000126  00000-0  10420-4 0  9998","OBJECT_TYPE":"PAYLOAD","BSTAR":"0.00001042000000","INCLINATION":"53.0571","CLASSIFICATION_TYPE":"U","OBJECT_ID":"2020-006P","REF_FRAME":"TEME","RCS_SIZE":"LARGE","GP_ID":"209586472","TIME_SYSTEM":"UTC","SEMIMAJOR_AXIS":"6925.378","MEAN_ANOMALY":"270.3883","EPOCH":"2022-08-04T16:13:00.240672","ARG_OF_PERICENTER":"89.7270","MEAN_MOTION":"15.06390544"},{"NORAD_CAT_ID":"45058","DECAY_DATE":null,"APOAPSIS":"548.268","MEAN_MOTION_DOT":"0.00001904","CENTER_NAME":"EARTH","EPHEMERIS_TYPE":"0","MEAN_MOTION_DDOT":"0.0000000000000","MEAN_ELEMENT_THEORY":"SGP4","TLE_LINE2":"2 45058  53.0561  59.8108 0001511  90.8552 269.2610 15.06397413138605","LAUNCH_DATE":"2020-01-29","ECCENTRICITY":"0.00015110","SITE":"AFETR","PERIAPSIS":"546.175","REV_AT_EPOCH":"13860","COUNTRY_CODE":"US","OBJECT_NAME":"STARLINK-1162","RA_OF_ASC_NODE":"59.8108","ELEMENT_SET_NO":"999","PERIOD":"95.592","FILE":"3529274","TLE_LINE1":"1 45058U 20006Q   22216.93370893  .00001904  00000-0  14670-3 0  9990","OBJECT_TYPE":"PAYLOAD","BSTAR":"0.00014670000000","CLASSIFICATION_TYPE":"U","INCLINATION":"53.0561","REF_FRAME":"TEME","OBJECT_ID":"2020-006Q","RCS_SIZE":"LARGE","GP_ID":"209587723","TIME_SYSTEM":"UTC","SEMIMAJOR_AXIS":"6925.356","EPOCH":"2022-08-04T22:24:32.451552","MEAN_ANOMALY":"269.2610","ARG_OF_PERICENTER":"90.8552","MEAN_MOTION":"15.06397413"},{"NORAD_CAT_ID":"45059","APOAPSIS":"548.104","DECAY_DATE":null,"MEAN_MOTION_DOT":"0.00002175","CENTER_NAME":"EARTH","EPHEMERIS_TYPE":"0","MEAN_MOTION_DDOT":"0.0000000000000","MEAN_ELEMENT_THEORY":"SGP4","TLE_LINE2":"2 45059  53.0556  60.9163 0001311 102.3849 257.7287 15.06405621138568","LAUNCH_DATE":"2020-01-29","ECCENTRICITY":"0.00013110","SITE":"AFETR","PERIAPSIS":"546.288","COUNTRY_CODE":"US","REV_AT_EPOCH":"13856","OBJECT_NAME":"STARLINK-1165","RA_OF_ASC_NODE":"60.9163","ELEMENT_SET_NO":"999","PERIOD":"95.592","FILE":"3529274","TLE_LINE1":"1 45059U 20006R   22216.69042714  .00002175  00000-0  16486-3 0  9990","OBJECT_TYPE":"PAYLOAD","BSTAR":"0.00016486000000","INCLINATION":"53.0556","CLASSIFICATION_TYPE":"U","REF_FRAME":"TEME","OBJECT_ID":"2020-006R","RCS_SIZE":"LARGE","GP_ID":"209587473","TIME_SYSTEM":"UTC","SEMIMAJOR_AXIS":"6925.331","MEAN_ANOMALY":"257.7287","EPOCH":"2022-08-04T16:34:12.904896","ARG_OF_PERICENTER":"102.3849","MEAN_MOTION":"15.06405621"},{"GP_ID":"209586222","RCS_SIZE":"LARGE","REF_FRAME":"TEME","OBJECT_ID":"2020-006S","BSTAR":"0.00003975700000","OBJECT_TYPE":"PAYLOAD","INCLINATION":"53.0539","CLASSIFICATION_TYPE":"U","ARG_OF_PERICENTER":"88.5359","MEAN_MOTION":"15.06393714","SEMIMAJOR_AXIS":"6925.368","TIME_SYSTEM":"UTC","EPOCH":"2022-08-04T16:28:55.015968","MEAN_ANOMALY":"271.5816","TLE_LINE2":"2 45060  53.0539  60.9197 0001626  88.5359 271.5816 15.06393714138569","MEAN_ELEMENT_THEORY":"SGP4","SITE":"AFETR","ECCENTRICITY":"0.00016260","LAUNCH_DATE":"2020-01-29","MEAN_MOTION_DDOT":"0.0000000000000","MEAN_MOTION_DOT":"0.00000311","DECAY_DATE":null,"APOAPSIS":"548.359","EPHEMERIS_TYPE":"0","CENTER_NAME":"EARTH","NORAD_CAT_ID":"45060","PERIOD":"95.593","TLE_LINE1":"1 45060U 20006S   22216.68674787  .00000311  00000-0  39757-4 0  9999","FILE":"3529274","ELEMENT_SET_NO":"999","RA_OF_ASC_NODE":"60.9197","REV_AT_EPOCH":"13856","COUNTRY_CODE":"US","PERIAPSIS":"546.107","OBJECT_NAME":"STARLINK-1166"},{"COUNTRY_CODE":"US","REV_AT_EPOCH":"13856","PERIAPSIS":"546.079","OBJECT_NAME":"STARLINK-1169","RA_OF_ASC_NODE":"60.8819","ELEMENT_SET_NO":"999","PERIOD":"95.592","TLE_LINE1":"1 45061U 20006T   22216.69410430  .00006092  00000-0  42739-3 0  9999","FILE":"3529274","NORAD_CAT_ID":"45061","MEAN_MOTION_DOT":"0.00006092","APOAPSIS":"548.289","DECAY_DATE":null,"EPHEMERIS_TYPE":"0","CENTER_NAME":"EARTH","MEAN_MOTION_DDOT":"0.0000000000000","TLE_LINE2":"2 45061  53.0546  60.8819 0001595 112.4988 247.6170 15.06409644138565","MEAN_ELEMENT_THEORY":"SGP4","SITE":"AFETR","LAUNCH_DATE":"2020-01-29","ECCENTRICITY":"0.00015950","TIME_SYSTEM":"UTC","SEMIMAJOR_AXIS":"6925.319","MEAN_ANOMALY":"247.6170","EPOCH":"2022-08-04T16:39:30.611520","ARG_OF_PERICENTER":"112.4988","MEAN_MOTION":"15.06409644","BSTAR":"0.00042739000000","OBJECT_TYPE":"PAYLOAD","CLASSIFICATION_TYPE":"U","INCLINATION":"53.0546","OBJECT_ID":"2020-006T","REF_FRAME":"TEME","GP_ID":"209586972","RCS_SIZE":"LARGE"}];
